NAVSTAR 48 (USA 151)    
1 26407U 00040A   26178.70595247  .00000081  00000+0  00000+0 0  9993
2 26407  54.8503 214.7444 0120895 302.5581  16.1396  2.00557856190151
NAVSTAR 51 (USA 166)    
1 27663U 03005A   26178.07688515  .00000081  00000+0  00000+0 0  9993
2 27663  54.8809 214.5757 0148019  53.1001 307.4769  2.00560140171502
NAVSTAR 54 (USA 177)    
1 28190U 04009A   26178.36951721 -.00000043  00000+0  00000+0 0  9997
2 28190  54.8210 275.2756 0116509 173.5373 191.2481  2.00554539163152
NAVSTAR 56 (USA 180)    
1 28474U 04045A   26178.52985552 -.00000102  00000+0  00000+0 0  9995
2 28474  55.1297 324.4797 0169925 316.6549 228.8680  2.00556517158636
NAVSTAR 57 (USA 183)    
1 28874U 05038A   26178.88121686 -.00000032  00000+0  00000+0 0  9993
2 28874  54.8692 272.7457 0128018 296.2471 107.0540  2.00565085152051
INMARSAT 4-F2           
1 28899U 05044A   26178.90599581 -.00000253  00000+0  00000+0 0  9998
2 28899   5.1082  43.6807 0003656  44.5363 297.4480  1.00276631 75627
NAVSTAR 58 (USA 190)    
1 29486U 06042A   26178.46440980  .00000035  00000+0  00000+0 0  9996
2 29486  54.7119 150.9309 0106814  54.6929 306.2910  2.00569334144608
NAVSTAR 59 (USA 192)    
1 29601U 06052A   26177.89165157  .00000083  00000+0  00000+0 0  9995
2 29601  54.9336 213.6215 0084877  90.7582 270.2951  2.00558656143602
NAVSTAR 60 (USA 196)    
1 32260U 07047A   26178.19682157 -.00000070  00000+0  00000+0 0  9990
2 32260  54.1023  79.6530 0167143  87.5980 274.3314  2.00554886137013
COSMOS 2433 [GLONASS-M] 
1 32275U 07052A   26177.30077292 -.00000084  00000+0  00000+0 0  9997
2 32275  65.5713 315.6262 0002876 196.1254 163.8539  2.13104185145251
COSMOS 2432 [GLONASS-M] 
1 32276U 07052B   26178.97701435 -.00000078  00000+0  00000+0 0  9998
2 32276  65.5863 315.6977 0007480 328.0830 181.6997  2.13103239145315
NAVSTAR 61 (USA 199)    
1 32384U 07062A   26178.63377729 -.00000037  00000+0  00000+0 0  9992
2 32384  55.0232 273.7325 0035862 166.3244 276.7056  2.00560815135726
COSMOS 2434 [GLONASS-M] 
1 32393U 07065A   26178.19052823  .00000101  00000+0  00000+0 0  9992
2 32393  64.3185 191.5785 0001243 326.9302 245.4349  2.13101370143984
COSMOS 2436 [GLONASS-M] 
1 32395U 07065C   26178.84001979  .00000096  00000+0  00000+0 0  9995
2 32395  64.3274 191.6289 0017282 353.5963 129.3057  2.13100206143954
NAVSTAR 62 (USA 201)    
1 32711U 08012A   26178.60578132  .00000031  00000+0  00000+0 0  9993
2 32711  54.4987 149.5086 0211438 247.9631 109.7489  2.00572777133964
NAVSTAR 64 (USA 206)    
1 35752U 09043A   26178.59006079 -.00000078  00000+0  00000+0 0  9992
2 35752  56.2169  27.0433 0053814  83.6480 274.0032  2.00553909123560
COSMOS 2456 [GLONASS-M] 
1 36111U 09070A   26176.78374925 -.00000065  00000+0  00000+0 0  9995
2 36111  65.0164  70.6784 0004249 334.9853  36.3390  2.13103651128616
COSMOS 2457 [GLONASS-M] 
1 36112U 09070B   26178.63741042 -.00000048  00000+0  00000+0 0  9991
2 36112  65.0032  70.4590 0003232 122.1051 358.6068  2.13101175128657
COSMOS 2460 [GLONASS-M] 
1 36402U 10007C   26178.22930437 -.00000082  00000+0  00000+0 0  9996
2 36402  65.4142 314.1261 0002031 121.7117  47.8769  2.13101740126945
NAVSTAR 65 (USA 213)    
1 36585U 10022A   26178.49231297  .00000085  00000+0  00000+0 0  9994
2 36585  54.2697 208.1468 0126433  66.1261 340.0224  2.00563021117803
BEIDOU-2 IGSO-1         
1 36828U 10036A   26177.90040617 -.00000057  00000+0  00000+0 0  9998
2 36828  54.3050 162.8716 0059014 225.3100 318.5305  1.00269877 58197
BEIDOU-2 G4             
1 37210U 10057A   26178.83793654 -.00000104  00000+0  00000+0 0  9999
2 37210   3.6733  68.8906 0004785 191.9862 116.7043  1.00271534 57393
BEIDOU-2 IGSO-2         
1 37256U 10068A   26175.67652892 -.00000223  00000+0  00000+0 0  9990
2 37256  47.5326 271.7373 0056042 213.3814 139.3528  1.00281062 56867
BEIDOU-2 IGSO-3         
1 37384U 11013A   26176.54644699 -.00000187  00000+0  00000+0 0  9995
2 37384  62.4191  40.0714 0035057 184.1159 353.6243  1.00266124 55744
GSAT-8                  
1 37605U 11022A   26178.88848906  .00000094  00000+0  00000+0 0  9993
2 37605   2.1581  81.7037 0001629 183.2138  26.0072  1.00273481 53326
BEIDOU-2 IGSO-4         
1 37763U 11038A   26177.93983405  .00000024  00000+0  00000+0 0  9997
2 37763  54.6031 165.5857 0159658 231.4756 310.1226  1.00284005 54741
GSAT0101 (GALILEO-PFM)  
1 37846U 11060A   26177.23375949 -.00000096  00000+0  00000+0 0  9995
2 37846  56.9911 341.5158 0002838  55.8370 304.1849  1.70475865 91278
GSAT0102 (GALILEO-FM2)  
1 37847U 11060B   26176.58449965 -.00000097  00000+0  00000+0 0  9994
2 37847  56.9921 341.5338 0002831  14.5912 352.5946  1.70476098 91271
COSMOS 2476 [GLONASS-M] 
1 37867U 11064A   26173.36699142 -.00000061  00000+0  00000+0 0  9998
2 37867  65.2731  72.6963 0022606 238.5611 299.8582  2.13103651113877
COSMOS 2477 [GLONASS-M] 
1 37868U 11064B   26178.29302987 -.00000051  00000+0  00000+0 0  9993
2 37868  65.2822  72.6094 0019400 238.8969 298.9395  2.13102995113974
COSMOS 2475 [GLONASS-M] 
1 37869U 11064C   26178.34757091 -.00000051  00000+0  00000+0 0  9990
2 37869  65.2890  72.6291 0025235 252.4316 282.3268  2.13101874113982
